{"spkid": "50716655", "covariance": {"epoch": "2456781.5", "elements": [{"label": "e", "name": "e", "sigma": 3.00654219328376e-05, "units": null, "title": "eccentricity", "value": ".4332094571711853"}, {"sigma": 4.7775811482652e-05, "name": "q", "value": ".90009530271686", "title": "perihelion distance", "units": "au", "label": "q"}, {"units": "TDB", "value": "2457073.331171438920", "title": "time of perihelion passage", "sigma": 0.00137237488400939, "name": "tp", "label": "tp"}, {"label": "node", "units": "deg", "value": "211.4362956309658", "title": "longitude of the ascending node", "sigma": 0.000243000523980399, "name": "om"}, {"units": "deg", "value": "287.2248066181128", "title": "argument of perihelion", "sigma": 0.00561362419360787, "name": "w", "label": "peri"}, {"label": "i", "units": "deg", "value": "3.922408052795131", "title": "inclination", "sigma": 0.000496317734997217, "name": "i"}], "data": [["9.039295959995521E-10", "-1.436399917221665E-9", "-4.01675459165199E-8", "5.834685585663959E-9", "-1.685309725753762E-7", "-1.413207651312637E-8"], ["-1.436399917221665E-9", "2.282528162825902E-9", "6.382752788636673E-8", "-9.271751895069885E-9", "2.678050795154863E-7", "2.245702660054206E-8"], ["-4.01675459165199E-8", "6.382752788636673E-8", "1.883412822259797E-6", "-2.51030074841914E-7", "7.572426455457496E-6", "6.026293173991744E-7"], ["5.834685585663959E-9", "-9.271751895069885E-9", "-2.51030074841914E-7", "5.904925465474851E-8", "-1.101523426845881E-6", "-1.121995482171059E-7"], ["-1.685309725753762E-7", "2.678050795154863E-7", "7.572426455457496E-6", "-1.101523426845881E-6", "3.151277658705961E-5", "2.632173898586261E-6"], ["-1.413207651312637E-8", "2.245702660054206E-8", "6.026293173991744E-7", "-1.121995482171059E-7", "2.632173898586261E-6", "2.463312940727677E-7"]], "labels": ["e", "q", "tp", "node", "peri", "i"]}, "elements": [{"label": "e", "units": null, "title": "eccentricity", "value": ".4345999858795632", "name": "e", "sigma": "2.9876E-5"}, {"title": "semi-major axis", "value": "1.5939818783311", "units": "au", "sigma": "3.8235E-7", "name": "a", "label": "a"}, {"label": "q", "sigma": "4.7836E-5", "name": "q", "value": ".9012373765161245", "title": "perihelion distance", "units": "au"}, {"title": "inclination; angle with respect to x-y ecliptic plane", "value": "3.949896340968151", "units": "deg", "sigma": ".00049449", "name": "i", "label": "i"}, {"label": "node", "name": "om", "sigma": ".00023218", "title": "longitude of the ascending node", "value": "211.0908107817347", "units": "deg"}, {"label": "peri", "name": "w", "sigma": ".0055733", "units": "deg", "value": "287.8089047233063", "title": "argument of perihelion"}, {"label": "M", "title": "mean anomaly", "value": "224.1134700588516", "units": "deg", "name": "ma", "sigma": ".00094994"}, {"label": "tp", "title": "time of perihelion passage", "value": "2461477.958097517652", "units": "TDB", "name": "tp", "sigma": ".0020378"}, {"sigma": ".00026448", "name": "per", "title": "sidereal orbital period", "value": "735.0611951722818", "units": "d", "label": "period"}, {"label": "n", "units": "deg/d", "value": ".489755141972396", "title": "mean motion", "sigma": "1.7622E-7", "name": "n"}, {"label": "Q", "name": "ad", "sigma": "5.4851E-7", "units": "au", "value": "2.286726380146076", "title": "aphelion distance"}], "epoch": "2461200.5"}